stk.v.9.0

# WrittenBy    STK_v9.2.1

BEGIN Ephemeris

NumberOfEphemerisPoints 91

ScenarioEpoch            19 May 2020 04:00:00.000

# Epoch in JDate format: 2458988.66666666666667
# Epoch in YYDDD format:   20140.16666666666667


InterpolationMethod     Lagrange

InterpolationSamplesM1      5

CentralBody             Earth

CoordinateSystem        ICRF 

# Time of first point: 19 May 2020 04:00:00.000000000 UTCG = 2458988.66666666666667 JDate = 20140.16666666666667 YYDDD

EphemerisTimePosVel

3.60000000000000e+003 5.24097031566132e+005 -5.46368277341421e+006 4.22759685208622e+006 5.44815018677545e+003 3.54654866562547e+003 3.90809674789222e+003
3.66000000000000e+003 8.49620641332463e+005 -5.23925892684557e+006 4.45279608269454e+006 5.39873467211646e+003 3.93155599494626e+003 3.59584475261190e+003
3.72000000000000e+003 1.17147937112351e+006 -4.99223528197612e+006 4.65878796074621e+006 5.32603145277005e+003 4.29960436619021e+003 3.26808190603282e+003
3.78000000000000e+003 1.48828486764807e+006 -4.72367738731713e+006 4.84468393025258e+006 5.23035413761028e+003 4.64910618480031e+003 2.92622202914123e+003
3.84000000000000e+003 1.79867057498246e+006 -4.43474368041408e+006 5.00968211990428e+006 5.11211543539134e+003 4.97855385767672e+003 2.57173975114954e+003
3.90000000000000e+003 2.10129762927609e+006 -4.12668049086997e+006 5.15307080198214e+006 4.97182537450826e+003 5.28652629625298e+003 2.20616414861144e+003
3.96000000000000e+003 2.39486063400570e+006 -3.80081666424194e+006 5.27423146242934e+006 4.81008910296454e+003 5.57169504643068e+003 1.83107214967583e+003
4.02000000000000e+003 2.67809329086690e+006 -3.45855783000127e+006 5.37264146884190e+006 4.62760427803690e+003 5.83283001893083e+003 1.44808173193048e+003
4.08000000000000e+003 2.94977386201341e+006 -3.10138033828231e+006 5.44787632486893e+006 4.42515805689659e+003 6.06880479534386e+003 1.05884494317701e+003
4.14000000000000e+003 3.20873044008280e+006 -2.73082489157432e+006 5.49961150129836e+006 4.20362370116866e+003 6.27860148699017e+003 6.65040775242295e+002
4.20000000000000e+003 3.45384600327584e+006 -2.34848989882630e+006 5.52762383592945e+006 3.96395681007545e+003 6.46131512563255e+003 2.68367921565544e+002
4.26000000000000e+003 3.68406323368442e+006 -1.95602458063226e+006 5.53179249619380e+006 3.70719119841285e+003 6.61615756710066e+003 -1.29462550198517e+002
4.32000000000000e+003 3.89838907808381e+006 -1.55512185523790e+006 5.51209950037255e+006 3.43443443713989e+003 6.74246089098925e+003 -5.26734578953198e+002
4.38000000000000e+003 4.09589903151600e+006 -1.14751103605542e+006 5.46862979516134e+006 3.14686307581749e+003 6.83968028176535e+003 -9.21734512472922e+002
4.44000000000000e+003 4.27574112518688e+006 -7.34950372185947e+005 5.40157088924864e+006 2.84571756750470e+003 6.90739637885657e+003 -1.31275849932545e+003
4.50000000000000e+003 4.43713960147505e+006 -3.19219464126525e+005 5.31121204448792e+006 2.53229691800408e+003 6.94531708558333e+003 -1.69811983851795e+003
4.56000000000000e+003 4.57939826020010e+006 9.78884126232557e+004 5.19794302815252e+006 2.20795308253694e+003 6.95327882913211e+003 -2.07615625516377e+003
4.62000000000000e+003 4.70190346171591e+006 5.14574042942362e+005 5.06225243165559e+006 1.87408513401876e+003 6.93124726613473e+003 -2.44523707078610e+003
4.68000000000000e+003 4.80412677387516e+006 9.29040033090265e+005 4.90472556298723e+006 1.53213322809006e+003 6.87931743081014e+003 -2.80377023732884e+003
4.74000000000000e+003 4.88562725144712e+006 1.33949856385233e+006 4.72604192196004e+006 1.18357239093497e+003 6.79771332502969e+003 -3.15020920453344e+003
4.80000000000000e+003 4.94605333815631e+006 1.74417910238498e+006 4.52697226915356e+006 8.29906156684017e+002 6.68678695207416e+003 -3.48305959105864e+003
4.86000000000000e+003 4.98514438313764e+006 2.14133603949522e+006 4.30837530120104e+006 4.72660081846543e+002 6.54701679825052e+003 -3.80088563056707e+003
4.92000000000000e+003 5.00273176526658e+006 2.52925621941087e+006 4.07119394675975e+006 1.13375164748414e+002 6.37900576891789e+003 -4.10231636497326e+003
4.98000000000000e+003 4.99873962051458e+006 2.90626632956135e+006 3.81645129914228e+006 -2.46398801639212e+002 6.18347858782599e+003 -4.38605155813805e+003
5.04000000000000e+003 4.97318516919228e+006 3.27074011849281e+006 3.54524620315382e+006 -6.05109914807254e+002 5.96127867098397e+003 -4.65086730450036e+003
5.10000000000000e+003 4.92617864166882e+006 3.62110541078298e+006 3.25874851517160e+006 -9.61210856915729e+002 5.71336448854444e+003 -4.89562130845347e+003
5.16000000000000e+003 4.85792280288782e+006 3.95585088869630e+006 2.95819405691247e+006 -1.31316556922450e+003 5.44080543039577e+003 -5.11925781169264e+003
5.22000000000000e+003 4.76871207773089e+006 4.27353261132649e+006 2.64487928465582e+006 -1.65945587795742e+003 5.14477719329686e+003 -5.32081214727996e+003
5.28000000000000e+003 4.65893128100161e+006 4.57278024310598e+006 2.32015569691633e+006 -1.99858804301877e+003 4.82655670945188e+003 -5.49941490078212e+003
5.34000000000000e+003 4.52905395750812e+006 4.85230296481497e+006 1.98542400468939e+006 -2.32909920131384e+003 4.48751663840115e+003 -5.65429566053182e+003
5.40000000000000e+003 4.37964033940461e+006 5.11089504159300e+006 1.64212808941600e+006 -2.64956367688008e+003 4.12911944598737e+003 -5.78478634083607e+003


END Ephemeris
